BEIDOU 3 (C01)          
1 36287U 10001A   21323.54986160 -.00000268  00000+0  00000+0 0  9993
2 36287   1.7347  43.1625 0001966  74.6398 279.3247  1.00266671 43404
BEIDOU 5 (C06)          
1 36828U 10036A   21323.54288413 -.00000034  00000+0  00000+0 0  9999
2 36828  54.1792 178.1642 0023398 175.8513   6.0528  1.00258682 41470
BEIDOU 6 (C04)          
1 37210U 10057A   21323.62161002 -.00000096  00000+0  00000+0 0  9999
2 37210   0.8030  43.5817 0007971 155.4677 243.6998  1.00272889 40533
BEIDOU 7 (C07)          
1 37256U 10068A   21323.62197350 -.00000213  00000+0  00000+0 0  9997
2 37256  50.5896 292.1546 0016983 191.4833 266.7167  1.00259402 40049
BEIDOU 8 (C08)          
1 37384U 11013A   21322.63070971 -.00000202  00000+0  00000+0 0  9997
2 37384  59.9893  56.3621 0019488 185.6215 148.4946  1.00265745 38907
BEIDOU 9 (C09)          
1 37763U 11038A   21322.80274726  .00000001  00000+0  00000+0 0  9994
2 37763  54.4658 180.6334 0086217 225.9217  36.0243  1.00278454 37882
BEIDOU 10 (C10)         
1 37948U 11073A   21323.39687517 -.00000160  00000+0  00000+0 0  9996
2 37948  50.7020 291.7818 0078104 218.6897 145.1249  1.00258148 36659
BEIDOU 11 (C05)         
1 38091U 12008A   21323.59677323  .00000070  00000+0  00000+0 0  9990
2 38091   1.8934  71.0688 0003468 274.1632 347.2749  1.00276375 35728
BEIDOU 12 (C11)         
1 38250U 12018A   21323.20272296 -.00000093  00000+0  00000+0 0  9992
2 38250  56.7390   0.5064 0024560 248.3273 118.3717  1.86234241 65179
BEIDOU 13 (C12)         
1 38251U 12018B   21323.21009682 -.00000093  00000+0  00000+0 0  9991
2 38251  56.6585 359.8435 0015503 249.5183 166.4355  1.86234021 65175
BEIDOU 15 (C14)         
1 38775U 12050B   21323.20560112  .00000027  00000+0  00000+0 0  9993
2 38775  55.2839 118.7668 0011502 328.8292 281.2106  1.86231257 62546
BEIDOU 16 (C02)         
1 38953U 12059A   21323.60183919 -.00000161  00000+0  00000+0 0  9990
2 38953   1.4712  84.2649 0009863 277.8576 357.4276  1.00273587 33290
BEIDOU 17 (C31)         
1 40549U 15019A   21323.42768363 -.00000174  00000+0  00000+0 0  9999
2 40549  52.2410 315.1950 0037624 191.1751 161.3599  1.00287958 24324
BEIDOU 18 (C57)         
1 40748U 15037A   21323.25161944 -.00000094  00000+0  00000+0 0  9994
2 40748  55.9171 358.8368 0001937 323.6976  29.8358  1.86233307 42992
BEIDOU 19 (C58)         
1 40749U 15037B   21323.04722022 -.00000094  00000+0  00000+0 0  9992
2 40749  55.9206 358.8328 0005178 291.0867  60.8008  1.86232009 42980
BEIDOU 20 (C18)         
1 40938U 15053A   21323.34632604 -.00000147  00000+0  00000+0 0  9998
2 40938  51.8300 278.2875 0044150 196.1185 162.2700  1.00293507 22590
BEIDOU IGSO-6 (C13)     
1 41434U 16021A   21323.54434211 -.00000176  00000+0  00000+0 0  9994
2 41434  57.7936  55.0214 0044600 212.4843  82.8744  1.00282706 20720
BEIDOU-2 G7 (C03)       
1 41586U 16037A   21323.52871644 -.00000340  00000+0  00000+0 0  9995
2 41586   1.5158  65.2423 0007087   0.8183 293.6302  1.00269909 20036
BEIDOU-3 M1 (C19)       
1 43001U 17069A   21323.13521676  .00000028  00000+0  00000+0 0  9991
2 43001  55.4373 118.7417 0007068 289.7013  69.2354  1.86231678 27478
BEIDOU-3 M2 (C20)       
1 43002U 17069B   21323.10238646  .00000028  00000+0  00000+0 0  9991
2 43002  55.4371 118.7784 0005711 322.3062  57.8710  1.86231336 27475
BEIDOU-3 M3 (C27)       
1 43107U 18003A   21323.27399505 -.00000096  00000+0  00000+0 0  9992
2 43107  55.3633 359.8457 0003221  51.3730 249.8051  1.86232404 26232
BEIDOU-3 M4 (C28)       
1 43108U 18003B   21323.30091668 -.00000096  00000+0  00000+0 0  9996
2 43108  55.3565 359.8349 0004140 242.9509 121.3447  1.86230778 26246
BEIDOU-3 M5 (C21)       
1 43207U 18018A   21322.66753670  .00000030  00000+0  00000+0 0  9995
2 43207  55.3969 118.8781 0003877   2.2721 357.7175  1.86231482 25612
BEIDOU-3 M6 (C22)       
1 43208U 18018B   21322.73426082  .00000030  00000+0  00000+0 0  9998
2 43208  55.3958 118.8813 0005205 306.2408  53.6982  1.86231601 25614
BEIDOU-3 M7 (C29)       
1 43245U 18029A   21323.05650682 -.00000095  00000+0  00000+0 0  9994
2 43245  55.2869 357.6359 0001208 238.3296 187.3322  1.86232569 24775
BEIDOU-3 M8 (C30)       
1 43246U 18029B   21323.10208406 -.00000095  00000+0  10000-3 0  9999
2 43246  55.2848 357.6642 0003474 335.1134 167.4582  1.86232876 24769
BEIDOU IGSO-7 (C16)     
1 43539U 18057A   21323.52966093 -.00000044  00000+0  00000+0 0  9993
2 43539  55.0605 177.5696 0040296 221.6876 323.7726  1.00274468 12400
BEIDOU-3 M9 (C23)       
1 43581U 18062A   21322.94184461 -.00000005  00000+0  00000+0 0  9999
2 43581  54.3456 239.2986 0004801 289.9152 315.6392  1.86231857 22507
BEIDOU-3 M10 (C24)      
1 43582U 18062B   21323.09347461 -.00000003  00000+0  00000+0 0  9996
2 43582  54.3447 239.2828 0006107 351.1410  87.6157  1.86232351 22519
BEIDOU-3 M11 (C25)      
1 43602U 18067A   21323.28400558  .00000001  00000+0  00000+0 0  9999
2 43602  54.4236 237.8722 0007493   0.1450 248.2060  1.86231496 22001
BEIDOU-3 M12 (C26)      
1 43603U 18067B   21323.30849807  .00000002  00000+0  00000+0 0  9998
2 43603  54.4202 237.8385 0004827 348.1012 187.0941  1.86231409 22021
BEIDOU-3 M13 (C32)      
1 43622U 18072A   21322.92462058  .00000028  00000+0  00000+0 0  9999
2 43622  55.3627 118.4325 0003928 281.4906  26.2518  1.86231637 21524
BEIDOU-3 M14 (C33)      
1 43623U 18072B   21323.19442716  .00000027  00000+0  00000+0 0  9998
2 43623  55.3646 118.4152 0002334 333.4436 245.4252  1.86231638 21532
BEIDOU-3 M15 (C34)      
1 43647U 18078A   21323.04830683 -.00000095  00000+0  10000-3 0  9999
2 43647  55.1821 357.8115 0005537 348.6490  27.5101  1.86232751 21040
BEIDOU-3 M16 (C35)      
1 43648U 18078B   21323.17556473 -.00000095  00000+0  00000+0 0  9991
2 43648  55.1780 357.8156 0003421 354.3487  15.3066  1.86232209 21065
BEIDOU-3 G1 (C59)       
1 43683U 18085A   21323.47808097 -.00000262  00000+0  00000+0 0  9999
2 43683   0.8715 204.5048 0005108  39.6479 126.7098  1.00274621 11303
BEIDOU-3 M17 (C36)      
1 43706U 18093A   21322.77699452 -.00000006  00000+0  00000+0 0  9995
2 43706  54.4252 239.1748 0009562 280.9429  78.9834  1.86232041 20417
BEIDOU-3 M18 (C37)      
1 43707U 18093B   21323.01016273 -.00000004  00000+0  00000+0 0  9996
2 43707  54.4267 239.1568 0009208 302.9184 304.3509  1.86232187 20409
BEIDOU-3 IGSO-1 (C38)   
1 44204U 19023A   21323.40174499 -.00000234  00000+0  00000+0 0  9996
2 44204  56.2486  55.2403 0023274 188.5962  78.6124  1.00274393  9605
BEIDOU-2 G8             
1 44231U 19027A   21323.60909510 -.00000232  00000+0  00000+0 0  9990
2 44231   0.3969  55.1254 0007195 153.3574 214.1466  1.00275859  9320
BEIDOU-3 IGSO-2 (C39)   
1 44337U 19035A   21322.99493872 -.00000044  00000+0  00000+0 0  9997
2 44337  55.0981 173.6087 0020482 178.1022 183.9171  1.00265068  8949
BEIDOU-3 M23 (C45)      
1 44542U 19061A   21323.07645657 -.00000003  00000+0  10000-3 0  9994
2 44542  54.6508 239.2639 0009297 335.4425 268.8305  1.86231613 14666
BEIDOU-3 M24 (C46)      
1 44543U 19061B   21323.21424487 -.00000001  00000+0  10000-3 0  9995
2 44543  54.6493 239.2292 0006507 327.3612 280.3345  1.86231961 14663
BEIDOU-3 IGSO-3         
1 44709U 19073A   21323.33057424 -.00000196  00000+0  00000+0 0  9998
2 44709  57.6007 298.5590 0019467 187.2298 171.7591  1.00270519  7691
BEIDOU-3 M21            
1 44793U 19078A   21323.09146352 -.00000096  00000+0  10000-3 0  9992
2 44793  55.0308 357.8577 0005449 355.9815   3.3375  1.86232231 13520
BEIDOU-3 M22            
1 44794U 19078B   21323.27691882 -.00000096  00000+0  00000+0 0  9991
2 44794  55.0048 357.8480 0003572 343.3478  51.5761  1.86232744 13530
BEIDOU-3 M19            
1 44864U 19090A   21323.22127715  .00000027  00000+0  00000+0 0  9990
2 44864  55.2976 118.6444 0014322 263.6063 288.5960  1.86231813 13115
BEIDOU-3 M20            
1 44865U 19090B   21323.13347334  .00000027  00000+0  00000+0 0  9992
2 44865  55.2995 118.6794 0012485 280.2983 302.9334  1.86231771 13084
BEIDOU-3 G2             
1 45344U 20017A   21323.46613206 -.00000129  00000+0  00000+0 0  9990
2 45344   2.2492 342.4964 0001954 204.3374 119.7163  1.00270923  6508
BEIDOU-3 G3             
1 45807U 20040A   21323.54393075 -.00000340  00000+0  00000+0 0  9993
2 45807   1.9262 299.5575 0010100 341.9590  83.6526  1.00272199  5333
